INTELSAT 902 (IS-902)   
1 26900U 01039A   26159.19117976 -.00000268  00000+0  00000+0 0  9999
2 26900   6.0957  71.8919 0004302   2.9568 200.4399  1.00270274 90605
INTELSAT 904 (IS-904)   
1 27380U 02007A   26159.27266770 -.00000211  00000+0  00000+0 0  9992
2 27380   6.8970  69.2902 0006736   2.5539 251.4763  1.00271520 51671
DIRECTV 5 (TEMPO 1)     
1 27426U 02023A   26159.52622328 -.00000042  00000+0  00000+0 0  9996
2 27426   4.8547  75.4173 0003369  12.0340 248.8016  1.00271609 88033
INTELSAT 905 (IS-905)   
1 27438U 02027A   26159.31654368  .00000108  00000+0  00000+0 0  9991
2 27438   6.7304  69.9063 0004054  16.0947 147.4603  1.00273239 51276
GALAXY 3C (G-3C)        
1 27445U 02030A   26159.38432052 -.00000137  00000+0  00000+0 0  9997
2 27445   3.7072  78.0941 0001799  31.3144 190.8728  1.00271437 46408
INTELSAT 906 (IS-906)   
1 27513U 02041A   26159.21388654  .00000028  00000+0  00000+0 0  9993
2 27513   5.7810  73.0303 0004689 357.9622 326.7445  1.00271163 86936
GALAXY 13 (HORIZONS-1)  
1 27954U 03044A   26159.54307426  .00000149  00000+0  00000+0 0  9994
2 27954   1.3979  83.9636 0002095 349.2219 229.2408  1.00273341 46489
INTELSAT 10-02          
1 28358U 04022A   26159.34349715  .00000005  00000+0  00000+0 0  9996
2 28358   0.0117 333.7031 0000503 182.8200 222.8651  1.00274113 80469
DIRECTV 8               
1 28659U 05019A   26159.51237757  .00000017  00000+0  00000+0 0  9991
2 28659   0.0040  84.4361 0002948 356.6193 241.2551  1.00271564 76984
GALAXY 28 (G-28)        
1 28702U 05022A   26159.48096934 -.00000184  00000+0  00000+0 0  9996
2 28702   3.2772  79.0371 0002813 353.8856 329.9895  1.00272452 51881
GALAXY 16 (G-16)        
1 29236U 06023A   26159.46666927 -.00000111  00000+0  00000+0 0  9994
2 29236   0.0049 114.4156 0002658 323.4816 247.9641  1.00271718 72882
DIRECTV 9S              
1 29494U 06043A   26159.43824747 -.00000098  00000+0  00000+0 0  9999
2 29494   2.3972  81.0077 0005046   6.8314 225.5746  1.00271505 51292
GALAXY 17 (G-17)        
1 31307U 07016B   26159.39818441 -.00000191  00000+0  00000+0 0  9999
2 31307   2.9489  80.0111 0004865  15.6807 219.4545  1.00271692 69710
INTELSAT 11 (IS-11)     
1 32253U 07044B   26159.48199213 -.00000227  00000+0  00000+0 0  9990
2 32253   3.5418  78.7746 0001881  82.7103  72.9782  0.99053713 68361
HORIZONS-2              
1 32388U 07063B   26159.47169596 -.00000238  00000+0  00000+0 0  9992
2 32388   2.5786  80.7328 0003998 355.4419 276.7304  1.00271899 67720
DIRECTV 11              
1 32729U 08013A   26159.40995096 -.00000110  00000+0  00000+0 0  9991
2 32729   0.0324 183.5243 0000293 229.9029 251.7771  1.00270228 45503
GALAXY 18 (G-18)        
1 32951U 08024A   26159.53084149  .00000041  00000+0  00000+0 0  9994
2 32951   0.0129 290.7534 0003195 158.2422 236.0279  1.00272538 45765
INTELSAT 25 (IS-25)     
1 33153U 08034A   26159.52031240 -.00000242  00000+0  00000+0 0  9997
2 33153   2.6851  80.4333 0001899  34.2971 129.7003  0.99020530 65600
GALAXY 19 (G-19)        
1 33376U 08045A   26159.53344955 -.00000123  00000+0  00000+0 0  9995
2 33376   0.0281  92.2328 0002744 343.2744 276.4696  1.00271843 64810
FM-5                    
1 35493U 09034A   26159.32668374 -.00000185  00000+0  00000+0 0  9995
2 35493   0.0186 289.2244 0000597  18.1555 340.7996  1.00272501 46554
INTELSAT 14 (IS-14)     
1 36097U 09064A   26159.26349325 -.00000258  00000+0  00000+0 0  9995
2 36097   0.0150 335.8760 0002803 117.4459 213.2034  1.00270969 60510
INTELSAT 15 (IS-15)     
1 36106U 09067A   26159.50318477 -.00000169  00000+0  00000+0 0  9991
2 36106   0.0124 329.2573 0002286 111.0886  82.8468  1.00271434 41147
DIRECTV 12              
1 36131U 09075A   26159.46299448 -.00000087  00000+0  00000+0 0  9998
2 36131   0.0438 143.8857 0000324 286.9865 249.9377  1.00270319 46464
INTELSAT 16 (IS-16)     
1 36397U 10006A   26159.32859042 -.00000229  00000+0  00000+0 0  9993
2 36397   0.0113 313.3517 0002161 141.4643 204.0108  1.00270005 59566
XM-5                    
1 37185U 10053A   26159.46354926 -.00000007  00000+0  00000+0 0  9991
2 37185   0.0665 272.8225 0002800 282.8004 112.9218  1.00271657 57392
INTELSAT 17 (IS-17)     
1 37238U 10065B   26159.49937141  .00000014  00000+0  00000+0 0  9999
2 37238   0.0089 107.4054 0002591 343.7061  51.5496  1.00272364 53164
INTELSAT 28 (IS-28)     
1 37392U 11016A   26159.33743045 -.00000209  00000+0  00000+0 0  9995
2 37392   1.7823  82.7324 0003882 354.6681 269.0965  1.00268686 53199
INTELSAT 18 (IS-18)     
1 37834U 11056A   26159.23678351  .00000069  00000+0  00000+0 0  9999
2 37834   0.0198 322.1359 0002125 129.3771  70.3633  1.00272260 53729
INTELSAT 22 (IS-22)     
1 38098U 12011A   26159.50058477 -.00000043  00000+0  00000+0 0  9998
2 38098   0.0240  65.4430 0001613   2.8942  80.8660  1.00273372  7105
INTELSAT 19 (IS-19)     
1 38356U 12030A   26159.51781022 -.00000040  00000+0  00000+0 0  9993
2 38356   0.0183 325.7733 0003085 119.4394 164.1098  1.00271888 50364
INTELSAT 20 (IS-20)     
1 38740U 12043A   26159.14342603 -.00000008  00000+0  00000+0 0  9995
2 38740   0.0070  81.3023 0001515  95.6436 199.7255  1.00267544 50656
